#dP2021  7 13 18  0  0.00000000      96 __u+U ITR00 EXT  IAC
## 2166 237600.00000000   900.00000000 59408 0.7500000000000
+  117   C06C07C08C09C10C11C12C13C14C16C19C20C21C22C23C24C25
+        C26C27C28C29C30C32C33C34C35C36C37C38C39C40C41C42C43
+        C44C45C46E01E02E03E04E05E07E08E09E11E12E13E14E15E18
+        E19E21E24E25E26E27E30E31E33E36G01G02G03G04G05G06G07
+        G08G09G10G11G12G13G14G15G16G17G18G19G20G21G22G23G24
+        G25G26G27G28G29G30G31G32J01J02J03R01R02R03R04R05R07
+        R08R09R11R12R13R14R15R16R17R18R19R20R21R22R24  0  0
++        10 10  9  9  8  9  8 10  8 11  9  7  7  8  9  8  9
++         8  9  8  9  7  9  9  9  6  7  8  8  9  9  9  8  9
++         9  7  9  8  8  8  9  9  8  8  8  7  7  7  8  6  9
++         7  8  9  6  9  7  8  7  8  8  6  8  7  9  7  7  9
++         7  7  7  7  8  6  7  7  6  8  8  7  7  7  8  7  6
++         7  7  6  8  7  7  7  8 11  9 11  8  9  9  8  7 10
++         9 10  9  8  7  8  7  8  8  9  8  9  7 10  9  0  0
%c M  cc GPS ccc cccc cccc cccc cccc ccccc ccccc ccccc ccccc
%c cc cc ccc ccc cccc cccc cccc cccc ccccc ccccc ccccc ccccc
%f  0.0000000  0.000000000  0.00000000000  0.000000000000000
%f  0.0000000  0.000000000  0.00000000000  0.000000000000000
%i    0    0    0    0      0      0      0      0         0
%i    0    0    0    0      0      0      0      0         0
/* IAC                                ULTRA-RAPID PREDICTION
/* S/V CLOCKS ARE ALIGNED TO GNSS TIME                      
/* G:C1WC2W R:C1PC2P E:C1XC5X C:C2IC6I J:C1CC2S             
/* PCV:IGS14_2163 OL/AL:FES2004  NONE     YN ORB:CoN CLK:CoN
*  2021 07 13 23 30  0.00000000
PC06  -7481.956926  34362.588725 -22422.027481    621.145130
PC07 -14789.638996  23758.820754  31713.180138    124.568561
PC08 -23337.860725  33734.890315 -10419.369931   -904.128860
PC09   2099.894996  40684.243079  -9645.903917    376.139744
PC10   -858.458160  26791.739301  32800.719678    -19.102451
PC11 -13827.025813   8158.137877  22885.885458    456.016988
PC12 -15431.656214 -12454.745026  19650.032712    812.609043
PC13 -12953.075039  34321.612724 -20923.247109    335.580410
PC14 -23510.039845   2841.480984 -14690.735132    809.495967
PC16  -5501.548663  35699.357956 -21448.770678   -920.056178
PC19  16190.924710  -9586.404305  20641.708572    908.006159
PC20  26568.190477   3087.780022   8038.753390   -845.954812
PC21 -21500.055777 -14636.533848  10092.806982   -935.583513
PC22  -3873.746148 -17127.179849  21683.314698   -948.356492
PC23  -6204.527165  21336.502637  16892.551763   -970.140090
PC24 -22670.698143   4851.648266 -15545.008265   -937.843973
PC25 -19839.755686  19572.722923   1614.088877   -886.303258
PC26 -12526.499661 -10473.325941 -22635.516811    879.184340
PC27  12969.730056  20983.254449 -13057.396438    563.918275
PC28   2028.028635  27514.571535   4223.065850    -50.939736
PC29   9407.983709 -18208.667477 -18949.990336    419.129643
PC30  16420.061765   2216.648393 -22461.189950    473.976100
PC32  21638.074250  14469.572725 -10064.485210   -924.593509
PC33 -16182.172556   9651.293635 -20571.746463   -942.855952
PC34 -16355.148382  -1391.157616  22556.650290   -628.724003
PC35  -2709.946185 -27410.848668  -4589.744806   -188.522336
PC36  20490.896996 -18906.197715  -1208.987441   -732.727138
PC37  11453.315973  11536.608389  22705.314625   -865.339160
PC38 -21193.146045  34736.257928 -11311.890175    161.547660
PC39  -2588.556848  36347.466978 -21067.465769     32.383002
PC40  -6745.039383  21428.595391  35710.121956    180.268284
PC41   3602.740496  17086.880122 -21718.348218   -959.503782
PC42 -26682.821170  -3648.830788  -7228.268195   -919.353179
PC43  -9883.892656  17694.882361  19162.245187   -820.079329
PC44 -13644.773758 -20720.989836  12791.873847    288.035259
PC45   6090.781924 -21231.970835 -17033.512754    492.752309
PC46  22876.109621  -5865.115705  14856.328623    180.297617
PE01  21713.838361 -14660.641719 -13770.684705  -1149.512921
PE02 -21608.963358  14718.783582  13889.562847    232.719589
PE03 -10501.807930  13660.083053 -24066.913716   -452.359824
PE04  -7463.414103 -23970.495899  15686.518608   -812.744855
PE05 -22619.526746  -4864.608553 -18453.601919   -265.421339
PE07  21420.298844  20326.062372   2171.049177   -561.335504
PE08   7978.723117  23942.784591 -15476.283382   5970.787617
PE09 -21556.919966 -20134.480005  -2334.610259   5601.388175
PE11 -10552.548722 -16221.571021  22386.793373   5723.705294
PE12   2876.936042 -28412.892688   7807.070855   5112.485855
PE13  10304.327226  16572.744894 -22257.895129    418.984622
PE14  14509.622581  25258.468433   -115.901207  -1499.295731
PE15  -2772.913335  28400.679265  -7864.861950    803.641581
PE18  -3092.594550 -25347.307684 -11480.937352  -1643.150093
PE19  12335.737805 -11636.444239  24270.203569    326.162241
PE21  29040.625430  -4280.814070   3827.225381   -676.078335
PE24 -19116.348448  -9736.588411 -20407.959310  -1006.392675
PE25 -29029.515381   4150.228269  -4011.944272   -539.911324
PE26  17544.848027  -5844.985099 -23114.941815   1582.538596
PE27  19903.888004   9084.864176  19943.319459    -75.056619
PE30  -2137.041383  17202.744855  23990.358671   2786.325851
PE31    863.854111 -17001.601937 -24203.441352   -483.222025
PE33  14188.970300 -23478.787826 -11126.554245   -467.729510
PE36 -17279.074860   4971.990725  23508.479520   -234.046835
PG01 -14016.569479  22029.532604   3450.701136    629.109549
PG02  16410.114524  -3261.451181 -19993.927200   -619.376096
PG03 -16833.627463  12252.050336 -16515.565380   -219.810016
PG04  -6322.419568  16396.728745 -19890.069581   -202.289410
PG05  25141.030741  -6485.287326   5880.241254    -47.828513
PG06  11596.783968   9350.652199 -21926.044229     39.726825
PG07  -4102.756946  24013.626847  10318.615571    201.711650
PG08 -13767.955354   6464.522154  21777.845908    -28.705025
PG09   4231.490495  22753.598770 -13073.477570   -355.348012
PG10 -14811.828770 -11996.092448  18727.416609   -161.474893
PG11  17096.918143  -1072.665393 -20312.959425     14.922700
PG12  18086.642594 -10820.423089 -16331.858833    -68.236181
PG13  16798.750207   2734.984096  20292.867812    157.338625
PG14  14510.921322  12712.015716  18269.956227     48.022929
PG15  13371.130370  -8447.101013  20984.329297   -135.728653
PG16 -26795.874134   -672.936194    388.802738   -356.655931
PG17  12925.419283  23198.250028    406.721404    473.357903
PG18   2735.192269 -23273.809439  12413.688496    341.152922
PG19  16630.278495  18718.853706  -9349.357187     25.941652
PG20  25774.478689  -1139.189863  -5551.159642    520.221999
PG21 -16445.789680  16931.002027  12347.549838    131.083984
PG22 -22592.220096  10266.511118  -9004.721273   -564.316080
PG23  -2148.700618 -14976.391723  21808.184124     84.990693
PG24  15065.215462 -19810.922968   8434.608047    173.034708
PG25   6044.255115 -15168.923746 -21160.473562    172.995560
PG26 -24078.253737  -5148.775481 -10360.951642    110.228629
PG27 -18306.545872  -5042.336702  18542.973105   -162.433692
PG28  19242.153461  11001.506011  15039.452560    538.342451
PG29  -1467.239466 -22317.878352 -14328.834311   -379.715429
PG30   5927.072007  17951.837725  18631.780637   -450.439656
PG31 -13426.328956  -7483.272155 -21740.076547   -128.472819
PG32 -16078.048043 -21105.946669  -2437.930537     14.211606
PJ01 -25919.785025  15719.254810 -24711.892091   -415.079053
PJ02 -31325.749791  26162.309497  15347.413281     -0.768542
PJ03 -25408.987976  27176.698713  24997.481533     -0.175482
PR01  16039.538307  15417.379760 -12490.867532     82.263218
PR02  22630.483965   8613.896461   7971.051907    485.939702
PR03  14380.366262  -3259.616281  20844.753214     39.443132
PR04  -1885.436181 -12891.308591  21959.574447     95.652300
PR05 -17058.713572 -15576.397501  10854.387254     75.291701
PR07 -13933.757648   3597.551070 -21033.415833    -42.053358
PR08   1931.019010  12984.371693 -21810.553244    -59.941133
PR09 -20286.792518   3781.356923 -14920.870854      2.765362
PR11 -10561.904905  15876.789726  16947.732035    -21.519876
PR12   7073.007907   8548.206492  22998.918718    245.075327
PR13  19895.094479  -3448.220839  15580.642542    -57.658183
PR14  21412.962246 -13780.547801  -1659.588833     66.433242
PR15  10284.383567 -15710.756944 -17242.490276    102.693785
PR16  -8516.068438  -7741.259450 -22789.162462    -17.860463
PR17   8821.505952 -13718.786724 -19595.668906    440.820848
PR18   2644.308969 -24697.874257  -5906.246808     83.328015
PR19  -3928.887378 -23075.152822  10120.898779   -151.408612
PR20  -9903.016505  -6244.294075  22667.813297    -52.445891
PR21  -8468.222661  14923.666298  18879.782928   -223.683399
PR22  -2307.858723  24877.658829   4880.688857   -122.521226
PR24  10548.103430   5276.320921 -22610.605092     50.341460
EOF
